#dP2020  7  1  0  0  0.00000000      96 __u+U ITR00 FIT  IAC
## 2112 259200.00000000   900.00000000 59031 0.0000000000000
+  114   C01C02C03C04C05C06C07C08C09C10C11C12C13C14C16C19C20
+        C21C22C23C24C25C26C27C28C29C30C32C33C34C35C36C37E01
+        E02E03E04E05E07E08E09E11E12E13E14E15E18E19E21E24E25
+        E26E27E30E31E33E36G01G02G03G04G05G06G07G08G09G10G11
+        G12G13G14G15G16G17G18G19G20G21G22G24G25G26G27G28G29
+        G30G31G32J01J02J03J07R01R02R03R04R05R07R08R09R11R12
+        R13R14R15R16R17R18R19R20R21R23R24R26  0  0  0  0  0
++        13 13 13 13 13  8  9  9  8  8  7  8  8  7  8  7  8
++         7  7  8  7  7  7  8  8 10  8  8  8  8  8  8  8  4
++         5  5  4  4  4  5  5  4  5  4  5  5  4  4  4  4  4
++         4  4  4  4  5  5  3  3  3  3  3  3  3  3  3  3  4
++         3  3  4  3  4  3  3  3  3  3  3  3  4  4  3  4  3
++         3  3  4  8  8  8  0  6  6  6  6  5  5  5  5  5  5
++         6  5  5  6  5  6  6  6  5  5  5  8  0  0  0  0  0
%c M  cc GPS ccc cccc cccc cccc cccc ccccc ccccc ccccc ccccc
%c cc cc ccc ccc cccc cccc cccc cccc ccccc ccccc ccccc ccccc
%f  0.0000000  0.000000000  0.00000000000  0.000000000000000
%f  0.0000000  0.000000000  0.00000000000  0.000000000000000
%i    0    0    0    0      0      0      0      0         0
%i    0    0    0    0      0      0      0      0         0
/* INFORMATION & ANALYSIS CENTER (IAC)            RAPID DATA
/* S/V CLOCKS ARE ALIGNED TO GNSS TIME                      
/* G:C1WC2W R:C1PC2P E:C1XC5X C:C2IC6I J:C1CC2S             
/* PCV:IGS14_2108 OL/AL:FES2004  NONE     YN ORB:CoN CLK:CoN
*  2020 07 01  7 15  0.00000000
PC01 -34268.712226  24522.500966   -572.810443   -367.837531
PC02   4393.245573  41931.767958    703.776061    245.934205
PC03 -14813.468041  39445.470126   1091.575907    842.086031
PC04 -39606.102640  14416.195826    401.104936   -133.831804
PC05  21857.783078  36049.455740    393.004704   -552.546570
PC06 -24573.865452  27831.035404 -19983.130363    768.254991
PC07 -11795.197203  37205.956498 -15098.926424      2.111887
PC08  -7854.616716  20467.382035  36131.128511   -345.743736
PC09  -9221.185647  27615.439818 -30360.641156    646.512986
PC10  -1319.232831  41818.531710  -2351.103360   -248.204464
PC11  12178.919106 -15581.843463 -19658.455983   -462.701383
PC12  26054.851094  -8762.380629  -4870.757468    417.523274
PC13   6804.487751  27915.274159  31041.032348    519.408900
PC14   9376.240193 -26268.336480  -1607.997042    605.894892
PC16 -21708.926368  28344.801807 -22498.108294   -607.031697
PC19  -2891.096121  26723.874936  -7427.625773    461.113090
PC20 -13928.095178  22146.932235   9679.565257   -844.387711
PC21  17090.944374  -4208.650824 -21639.573830   -598.471670
PC22  10081.129342  15834.414847 -20629.774369   -777.672628
PC23 -19398.321010 -20004.694063  -1573.217351   -847.343311
PC24  11049.859734 -11873.193282  22708.016612   -777.052047
PC25  -6944.063922 -22635.477415  14758.432008   -670.621181
PC26  21300.752924   4556.965542  17457.638598    738.229769
PC27 -27475.468339   2498.597229  -4280.395503    356.756483
PC28 -17949.426824  -9786.457862 -18992.460604   -204.811342
PC29  -1382.559622  16386.687014  22535.243247    249.872907
PC30 -20615.770911  13950.542233  12628.452134    339.952677
PC32 -17082.068358   4291.842812  21659.765825   -876.234471
PC33   2771.476461 -26778.503087   7402.519302   -804.695597
PC34  20231.825379 -14109.271412 -13041.841415   -861.727888
PC35  18099.944908   9332.771502  19059.178737   -771.172841
PC36   6236.449408  22730.424856 -14902.770272   -857.873577
PC37 -21350.571243  -5675.640183 -17021.345963   -860.340091
PE01  -3839.259832 -28521.540765   6937.038081   -889.028221
PE02   3910.462876  28535.426919  -6842.236603    144.203632
PE03  -5846.715023  23699.709221 -16724.561614   -315.755156
PE04 -11976.156108 -12280.010447  24134.404822   -556.839468
PE05 -20473.387943  21365.616323    592.276953   -367.024343
PE07  23020.760484  -6597.813574 -17394.906823   -402.961797
PE08  12138.485806  11891.756965 -24228.283507   6156.042391
PE09 -22916.487871   6869.159304  17428.384295   6011.014894
PE11 -28946.962205  -2567.694079   5662.600704   3811.134745
PE12 -22406.404343 -13975.039050 -13394.789677   5728.386686
PE13  28972.201366   2614.540340  -5459.001065    401.996522
PE14 -10781.390715  17506.807511  12414.744078  -1068.626134
PE15  22611.967766  13756.042012  13250.134343    861.592804
PE18   4575.571396 -23053.545864 -22234.782468  -1170.682978
PE19   7800.083981 -24130.109888  15278.271847     16.623904
PE21   9422.487905 -18089.055511  21454.184781   -607.614556
PE24 -17560.219350  -3497.520919 -23576.943203   5374.191216
PE25  -9505.068055  17959.362682 -21515.764102   -512.960947
PE26  18002.515929 -10335.395882 -21104.437350   3010.912261
PE27  17488.814271   3105.369896  23682.978691    186.944180
PE30  14984.131416  22732.076223  11614.797622   3782.872724
PE31 -15233.878783 -22376.207559 -11974.593649   -473.063529
PE33  -2974.762675 -16818.421332 -24176.583597   -465.454094
PE36 -18326.417001  10057.388595  20957.650607    539.910460
PG01 -21512.056943 -15215.173162  -4799.371974     19.546838
PG02   3445.753213  17261.530063  20545.382111   -480.509658
PG03 -12104.974430 -16833.531792  16593.332979   -226.011745
PG04 -17538.721942  -5357.069848  19236.765338   -109.261269
PG05   1818.196102  26388.441031     44.553003    -15.738906
PG06  -9690.804498  11513.842826  21938.380384   -296.825535
PG07 -23818.794245  -3725.351297 -11363.765095   -317.006164
PG08  -7246.552371 -13190.420816 -21866.474847    -39.436377
PG09 -23290.277916   5359.860823  11557.359338   -245.925344
PG10  11882.615715 -15177.934204 -18077.193495   -386.993165
PG11 -16016.600283 -13270.409896 -16829.612104   -233.575359
PG12  10617.058213  17670.678110  16597.794257     99.425891
PG13  -2113.016642  16672.058715 -20661.183189     22.911885
PG14  15583.938187 -17800.634554  12234.238504     -1.940301
PG15   9744.826256  12784.976591 -21458.274807   -220.567606
PG16   -606.421547 -26176.369767  -2877.957204   -177.163746
PG17 -21415.163114  15156.116218   4398.366223    289.127154
PG18  23437.501014   3558.981259 -12019.249658    234.851218
PG19 -17427.812960  16653.539856  10807.858171   -137.969973
PG20  15528.433212  -3004.882832 -21412.819850    527.396928
PG21  15445.639272  -8066.969809 -19231.212017     18.290382
PG22 -10532.244988 -22278.598926  10307.807018   -774.902319
PG24  21039.849520  15091.765265  -6929.570508    -15.063816
PG25  14677.897132   6980.627201  20820.267747     18.528783
PG26   5736.842775 -23645.017587  10344.175970    235.314814
PG27   4269.546107 -17938.675902 -19131.549746   -334.528483
PG28 -12087.708025  16370.056107 -16568.214301    703.745842
PG29  21912.909070   -484.485078  14976.172294   -140.223687
PG30 -17935.538731   5623.122977 -18798.635934   -252.939792
PG31   8770.181671 -12564.270018  21666.328694    -52.682876
PG32  20160.082090 -16609.270739   4439.348212    309.548756
PJ01 -31355.434973  26105.454251  15517.593226   -279.161131
PJ02 -20036.422025  21927.949463 -25434.954735     -0.889485
PJ03 -29247.971412  28447.190560  16070.873197     -4.741783
PJ07      0.000000      0.000000      0.000000 999999.999999
PR01   9112.999400   6487.336178 -22917.706275     63.876659
PR02  15456.257918 -14085.124044 -14524.330392    434.182255
PR03  11050.480545 -22858.296988   2235.595337     17.736083
PR04    542.101885 -18497.245393  17585.783682     54.700109
PR05 -10287.661969  -3727.905533  23056.556753     53.290841
PR07 -10872.702897  22935.721607  -2694.676377    -38.062885
PR08   -545.353078  18556.759379 -17442.620132    -53.181311
PR09  -9443.303716   6048.556601 -22894.767520    140.988239
PR11  12108.777237  22193.343579  -3160.629034    -28.984346
PR12  16392.407947  14464.194660  13186.220499    143.495384
PR13  11494.116200  -2007.621380  22668.609467    -40.655474
PR14   -189.188233 -17324.182213  18744.227839     52.860334
PR15 -11566.282762 -22368.812842   4103.941969    106.915456
PR16 -16706.119469 -13521.584602 -13662.521892     -4.437152
PR17  11414.432168  -9724.583106 -20644.908071    337.546218
PR18  -7248.611377  -9908.110066 -22360.686819     40.722754
PR19 -21505.477697  -5582.897815 -12532.733956   -100.371084
PR20 -24381.053650   3053.543116   6929.205859   -415.621959
PR21 -10390.682583   9801.187873  21119.742820   -135.079848
PR23  24690.675598   2210.066096   6000.093692    315.729457
PR24  24086.399333  -3697.887976  -7553.052543      4.640777
PR26 -25375.956166   1413.313115   1994.186954   -391.915742
EOF
